NORAD_CAT_ID,OBJECT_NAME,OBJECT_TYPE,EPOCH,MEAN_MOTION,ECCENTRICITY,INCLINATION,RA_OF_ASC_NODE,ARG_OF_PERICENTER,MEAN_ANOMALY,BSTAR,MEAN_MOTION_DOT,MEAN_MOTION_DDOT,TLE_LINE0,TLE_LINE1,TLE_LINE2,SEMIMAJOR_AXIS,PERIOD,APOGEE,PERIGEE,DECAYED
52287.0,STARLINK-3822,PAYLOAD,2022-09-05 14:00:01,15.08837124,0.0001851,53.2169,100.2368,76.4386,355.9966,0.0011064,0.00017363,0.0,0 STARLINK-3822,1 52287U 22041AC  22248.58334491  .00017363  00000-0  11064-2 0  9992,2 52287  53.2169 100.2368 0001851  76.4386 355.9966 15.08837124  1307,6917.889,95.438,541.035,538.474,0.0
52287.0,STARLINK-3822,PAYLOAD,2022-09-05 22:00:00,15.08825274,0.0001876999999999,53.2168,98.7423,69.5672,14.4679,-0.00072588,-0.00011817,0.0,0 STARLINK-3822,1 52287U 22041AC  22248.91667824 -.00011817  00000-0 -72588-3 0  9997,2 52287  53.2168  98.7423 0001877  69.5672  14.4679 15.08825274  1309,6917.925,95.438,541.089,538.492,0.0
52287.0,STARLINK-3822,PAYLOAD,2022-09-06 14:00:01,15.08801708,0.0001696999999999,53.2167,95.7479,75.3396,31.8339,0.0013311,0.00020938,0.0,0 STARLINK-3822,1 52287U 22041AC  22249.58334491  .00020938  00000-0  13311-2 0  9992,2 52287  53.2167  95.7479 0001697  75.3396  31.8339 15.08801708  1306,6917.996999999999,95.44,541.036,538.688,0.0
52287.0,STARLINK-3822,PAYLOAD,2022-09-06 22:00:00,15.08801513,0.0001793,53.2167,94.2535,67.7563,50.9766,0.00097761,0.00015289,0.0,0 STARLINK-3822,1 52287U 22041AC  22249.91667824  .00015289  00000-0  97761-3 0  9993,2 52287  53.2167  94.2535 0001793  67.7563  50.9766 15.08801513  1301,6917.998000000001,95.44,541.1030000000002,538.623,0.0
52287.0,STARLINK-3822,PAYLOAD,2022-09-07 06:00:00,15.08828813,0.0001715,53.2166,92.7561,69.4172,60.8674,-0.001515,-0.00024311,0.0,0 STARLINK-3822,1 52287U 22041AC  22250.25001157 -.00024311  00000-0 -15150-2 0  9992,2 52287  53.2166  92.7561 0001715  69.4172  60.8674 15.08828813 22449,6917.915,95.438,540.966,538.5930000000002,0.0
52287.0,STARLINK-3822,PAYLOAD,2022-09-07 14:00:01,15.08928328,0.0001717,53.2169,91.2477,72.1033,69.7517,-0.0083357,-0.00130868,0.0,0 STARLINK-3822,1 52287U 22041AC  22250.58334491 -.00130868  00000-0 -83357-2 0  9997,2 52287  53.2169  91.2477 0001717  72.1033  69.7517 15.08928328 22492,6917.61,95.432,540.663,538.288,0.0
52287.0,STARLINK-3822,PAYLOAD,2022-09-07 22:00:00,15.08816506,0.0001843,53.2167,89.7644,66.8562,86.5819,0.0015095,0.00023802,0.0,0 STARLINK-3822,1 52287U 22041AC  22250.91667824  .00023802  00000-0  15095-2 0  9994,2 52287  53.2167  89.7644 0001843  66.8562  86.5819 15.08816506  1308,6917.9519999999975,95.439,541.092,538.5419999999998,0.0
52287.0,STARLINK-3822,PAYLOAD,2022-09-08 06:00:00,15.08849239,0.000175,53.2167,88.2667,69.5044,95.5113,-0.0012281,-0.00019785,0.0,0 STARLINK-3822,1 52287U 22041AC  22251.25001157 -.00019785  00000-0 -12281-2 0  9994,2 52287  53.2167  88.2667 0001750  69.5044  95.5113 15.08849239 22599,6917.852,95.437,540.928,538.507,0.0
52287.0,STARLINK-3822,PAYLOAD,2022-09-08 14:00:01,15.08847963,0.0001798,53.217,86.7698,74.2875,102.3189,0.00044718,6.838e-05,0.0,0 STARLINK-3822,1 52287U 22041AC  22251.58334491  .00006838  00000-0  44718-3 0  9994,2 52287  53.2170  86.7698 0001798  74.2875 102.3189 15.08847963  1305,6917.856,95.437,540.965,538.477,0.0
52287.0,STARLINK-3822,PAYLOAD,2022-09-08 22:00:00,15.08835498,0.0001873,53.217,85.275,66.0721,122.1483,0.0020849,0.00033045,0.0,0 STARLINK-3822,1 52287U 22041AC  22251.91667824  .00033045  00000-0  20849-2 0  9998,2 52287  53.2170  85.2750 0001873  66.0721 122.1483 15.08835498  1308,6917.894,95.438,541.055,538.4630000000002,0.0
52287.0,STARLINK-3822,PAYLOAD,2022-09-09 00:00:02,15.08835137,0.000184,53.2168,84.9008,65.1481,216.0368,0.0026993,0.00042928,0.0,0 STARLINK-3822,1 52287U 22041AC  22252.00002315  .00042928  00000-0  26993-2 0  9993,2 52287  53.2168  84.9008 0001840  65.1481 216.0368 15.08835137 22706,6917.895,95.438,541.033,538.487,0.0
52287.0,STARLINK-3822,PAYLOAD,2022-09-09 14:00:01,15.08847755,0.0001704,53.2173,82.2803,73.1322,138.2987,0.00023366,3.433e-05,0.0,0 STARLINK-3822,1 52287U 22041AC  22252.58334491  .00003433  00000-0  23366-3 0  9999,2 52287  53.2173  82.2803 0001704  73.1322 138.2987 15.08847755  1302,6917.857,95.437,540.9,538.543,0.0
52287.0,STARLINK-3822,PAYLOAD,2022-09-09 22:00:00,15.08829585,0.0001781,53.2172,80.7854,64.421,158.6204,0.0024859,0.00039486,0.0,0 STARLINK-3822,1 52287U 22041AC  22252.91667824  .00039486  00000-0  24859-2 0  9999,2 52287  53.2172  80.7854 0001781  64.4210 158.6204 15.08829585  1303,6917.9119999999975,95.438,541.009,538.545,0.0
52287.0,STARLINK-3822,PAYLOAD,2022-09-10 14:00:01,15.08843209,0.0001564999999999,53.2174,77.7908,72.2614,173.9731,-0.00013595,-2.451e-05,0.0,0 STARLINK-3822,1 52287U 22041AC  22253.58334491 -.00002451  00000-0 -13595-3 0  9994,2 52287  53.2174  77.7908 0001565  72.2614 173.9731 15.08843209 22943,6917.871,95.437,540.818,538.653,0.0
52287.0,STARLINK-3822,PAYLOAD,2022-09-10 22:00:00,15.08819092,0.0001661,53.2173,76.2959,63.2826,194.5528,0.0026809,0.00042612,0.0,0 STARLINK-3822,1 52287U 22041AC  22253.91667824  .00042612  00000-0  26809-2 0  9992,2 52287  53.2173  76.2959 0001661  63.2826 194.5528 15.08819092  1307,6917.944,95.439,540.9580000000002,538.66,0.0
52287.0,STARLINK-3822,PAYLOAD,2022-09-11 14:00:01,15.08879886,0.0001465,53.2175,73.3015,72.2625,208.7663,-0.0036486999999999,-0.00057953,0.0,0 STARLINK-3822,1 52287U 22041AC  22254.58334491 -.00057953  00000-0 -36487-2 0  9996,2 52287  53.2175  73.3015 0001465  72.2625 208.7663 15.08879886  1304,6917.7580000000025,95.435,540.637,538.61,0.0
52287.0,STARLINK-3822,PAYLOAD,2022-09-11 22:00:00,15.08811639,0.000151,53.2173,71.8065,61.9276,230.7252,0.0029222,0.0004649,0.0,0 STARLINK-3822,1 52287U 22041AC  22254.91667824  .00046490  00000-0  29222-2 0  9993,2 52287  53.2173  71.8065 0001510  61.9276 230.7252 15.08811639 23145,6917.967,95.439,540.877,538.7869999999998,0.0
52287.0,STARLINK-3822,PAYLOAD,2022-09-12 14:00:01,15.08769334,0.0001494,53.2174,68.8028,67.6347,248.2185,0.0037211999999999,0.00059318,0.0,0 STARLINK-3822,1 52287U 22041AC  22255.58334491  .00059318  00000-0  37212-2 0  9999,2 52287  53.2174  68.8028 0001494  67.6347 248.2185 15.08769334  1301,6918.096,95.442,540.995,538.928,0.0
52287.0,STARLINK-3822,PAYLOAD,2022-09-12 22:00:00,15.08827945,0.0001419999999999,53.2172,67.3174,60.5945,266.8611,0.00144,0.00022696,0.0,0 STARLINK-3822,1 52287U 22041AC  22255.91667824  .00022696  00000-0  14400-2 0  9998,2 52287  53.2172  67.3174 0001420  60.5945 266.8611 15.08827945 23295,6917.917,95.438,540.765,538.8,0.0
52287.0,STARLINK-3822,PAYLOAD,2022-09-13 14:00:01,15.08849472,0.0001401,53.2173,64.3234,69.1054,281.5385,-0.0019702,-0.00031515,0.0,0 STARLINK-3822,1 52287U 22041AC  22256.58334491 -.00031515  00000-0 -19702-2 0  9995,2 52287  53.2173  64.3234 0001401  69.1054 281.5385 15.08849472  1304,6917.851,95.437,540.686,538.747,0.0
52287.0,STARLINK-3822,PAYLOAD,2022-09-13 22:00:00,15.08816559,0.0001537,53.2172,62.8284,61.3314,300.8972,0.00082019,0.00012781,0.0,0 STARLINK-3822,1 52287U 22041AC  22256.91667824  .00012781  00000-0  82019-3 0  9995,2 52287  53.2172  62.8284 0001537  61.3314 300.8972 15.08816559  1301,6917.9519999999975,95.439,540.88,538.754,0.0
52287.0,STARLINK-3822,PAYLOAD,2022-09-14 14:00:01,15.08833289,0.0001597,53.2175,59.8346,69.1612,316.2026,-0.0011782,-0.00018987,0.0,0 STARLINK-3822,1 52287U 22041AC  22257.58334491 -.00018987  00000-0 -11782-2 0  9994,2 52287  53.2175  59.8346 0001597  69.1612 316.2026 15.08833289  1302,6917.901,95.438,540.871,538.661,0.0
52287.0,STARLINK-3822,PAYLOAD,2022-09-14 22:00:00,15.08802664,0.000166,53.2175,58.3395,61.1541,335.7873,0.0031281,0.00049797,0.0,0 STARLINK-3822,1 52287U 22041AC  22257.91667824  .00049797  00000-0  31281-2 0  9997,2 52287  53.2175  58.3395 0001660  61.1541 335.7873 15.08802664 23600,6917.995,95.44,541.008,538.711,0.0
52287.0,STARLINK-3822,PAYLOAD,2022-09-15 14:00:01,15.08862837,0.0001653,53.2179,55.3459,66.3525,353.7529,-0.0011871,-0.00019143,0.0,0 STARLINK-3822,1 52287U 22041AC  22258.58334491 -.00019143  00000-0 -11871-2 0  9999,2 52287  53.2179  55.3459 0001653  66.3525 353.7529 15.08862837  1302,6917.811,95.436,540.819,538.5319999999998,0.0
52287.0,STARLINK-3822,PAYLOAD,2022-09-15 20:05:38,15.08845641,0.0001556,53.2191,54.2056,64.7774,295.3379,5.1481e-05,5.32e-06,0.0,0 STARLINK-3822,1 52287U 22041AC  22258.83725401  .00000532  00000-0  51481-4 0  9995,2 52287  53.2191  54.2056 0001556  64.7774 295.3379 15.08845641 23736,6917.863,95.437,540.805,538.6519999999998,0.0
52287.0,STARLINK-3822,PAYLOAD,2022-09-16 04:02:34,15.08841892,0.0001588,53.2192,52.7186,68.3322,291.7839,0.00013296,1.829e-05,0.0,0 STARLINK-3822,1 52287U 22041AC  22259.16845378  .00001829  00000-0  13296-3 0  9999,2 52287  53.2192  52.7186 0001588  68.3322 291.7839 15.08841892 22563,6917.875,95.437,540.8380000000002,538.641,0.0
52287.0,STARLINK-3822,PAYLOAD,2022-09-16 13:34:53,15.08834518,0.0001657,53.2195,50.935,69.5245,290.5925,0.00012259,1.663e-05,0.0,0 STARLINK-3822,1 52287U 22041AC  22259.56589936  .00001663  00000-0  12259-3 0  9992,2 52287  53.2195  50.9350 0001657  69.5245 290.5925 15.08834518 23845,6917.897,95.438,540.908,538.616,0.0
52287.0,STARLINK-3822,PAYLOAD,2022-09-16 19:56:26,15.08830956,0.0001651,53.2196,49.746,66.7957,293.3209,8.2636e-05,1.027e-05,0.0,0 STARLINK-3822,1 52287U 22041AC  22259.83086385  .00001027  00000-0  82636-4 0  9993,2 52287  53.2196  49.7460 0001651  66.7957 293.3209 15.08830956 22664,6917.908,95.438,540.915,538.631,0.0
52287.0,STARLINK-3822,PAYLOAD,2022-09-17 11:50:18,15.08836361,0.0001658,53.2197,46.7725,67.3729,292.7439,-2.4452e-06,-3.27e-06,0.0,0 STARLINK-3822,1 52287U 22041AC  22260.49326574 -.00000327  00000-0 -24452-5 0  9991,2 52287  53.2197  46.7725 0001658  67.3729 292.7439 15.08836361 22762,6917.892,95.438,540.903,538.61,0.0
